COSMOS 2433 (720)       
1 32275C 07052A   20205.99979167  .00000000  00000-0  00000-0 0  2059
2 32275  65.9930  27.7044 0001790 190.3333 155.3343  2.13104042    18
COSMOS 2432 (719)       
1 32276C 07052B   20205.99979167  .00000000  00000-0  00000-0 0  2050
2 32276  66.0056  27.7939 0008446 340.4834 315.3063  2.13103420    18
COSMOS 2434 (721)       
1 32393C 07065A   20205.99979167  .00000000  00000-0  00000-0 0  2054
2 32393  64.5601 265.1676 0002116 148.8825  84.4566  2.13102937    15
COSMOS 2436 (723)       
1 32395C 07065C   19331.99979167 -.00000003  00000-0  00000-0 0  3318
2 32395  64.6628 273.4180 0015428 335.5981 236.1653  2.13280743    12
COSMOS 2456 (730)       
1 36111C 09070A   20205.99979167 -.00000001  00000-0  00000-0 0  2056
2 36111  64.2323 144.8412 0005217 311.9799  94.8174  2.13102786    16
COSMOS 2457 (733)       
1 36112C 09070B   19331.99979167  .00000009  00000-0  00000-0 0  3312
2 36112  64.1929 152.9203 0006907 146.4578 270.9332  2.13101641    11
COSMOS 2459 (731)       
1 36400C 10007A   20175.99979167 -.00000001  00000-0  00000-0 0  1751
2 36400  65.8848  27.6736 0025225 354.9284 231.1448  2.13105240    18
COSMOS 2460 (732)       
1 36402C 10007C   20176.99979167 -.00000001  00000-0  00000-0 0  1765
2 36402  65.8683  27.5686 0002295  87.0908 133.2447  2.13101357    15
COSMOS 2464 (736)       
1 37139C 10041C   20205.99979167  .00000000  00000-0  00000-0 0  2055
2 37139  64.1599 264.5884 0024891   7.1269  89.5432  2.13100643    17
COSMOS 2476 (744)       
1 37867C 11064A   20205.99979167 -.00000001  00000-0  00000-0 0  2051
2 37867  64.5310 145.9245 0020476 241.1478  66.4847  2.13101759    13
COSMOS 2477 (745)       
1 37868C 11064B   20205.99979167 -.00000001  00000-0  00000-0 0  2052
2 37868  64.5391 145.9814 0018119 242.5508 243.5707  2.13101577    16
COSMOS 2475 (743)       
1 37869C 11064C   20205.99979167 -.00000001  00000-0  00000-0 0  2053
2 37869  64.5465 145.9832 0022383 262.4806 181.0540  2.13101965    11
COSMOS 2485 (747)       
1 39155C 13019A   20205.99979167 -.00000001  00000-0  00000-0 0  2055
2 39155  64.6986 146.2017 0020929 236.5523 115.6443  2.13101803    17
COSMOS 2492 (754)       
1 39620C 14012A   20205.99979167  .00000000  00000-0  00000-0 0  2054
2 39620  65.7671  26.3769 0011517 332.3156  54.9327  2.13103007    13
COSMOS 2500 (755)       
1 40001C 14032A   20205.99979167  .00000000  00000-0  00000-0 0  2051
2 40001  65.7078  26.2896 0006498 182.7714  64.9483  2.13102386    11
COSMOS 2501 (702)       
1 40315C 14075A   20205.99979167  .00000000  00000-0  00000-0 0  2056
2 40315  63.8760 265.5205 0017908 210.0315 192.4515  2.13098653    12
COSMOS 2514 (751)       
1 41330C 16008A   20205.99979167  .00000000  00000-0  00000-0 0  2052
2 41330  65.5102  26.1528 0009453 200.4500 229.7649  2.13102661    10
COSMOS 2516 (753)       
1 41554C 16032A   20205.99979167  .00000000  00000-0  00000-0 0  2057
2 41554  64.0996 265.6008 0014886 220.3673 100.7099  2.13101669    18
COSMOS 2522 (752)       
1 42939C 17055A   20205.99979167  .00000000  00000-0  00000-0 0  2051
2 42939  64.3328 265.7920 0009654 243.3037 304.3476  2.13101795    19
COSMOS 2527 (756)       
1 43508C 18053A   20205.99979167 -.00000001  00000-0  00000-0 0  2055
2 43508  64.8631 146.0568 0008155 240.0111 339.4876  2.13102340    15
COSMOS 2529 (757)       
1 43687C 18086A   20205.99979167  .00000000  00000-0  00000-0 0  2057
2 43687  64.5464 265.9214 0011658 264.2259 239.0475  2.13101972    16
COSMOS 2534 (758)       
1 44299C 19030A   20205.99979167  .00000000  00000-0  00000-0 0  2057
2 44299  64.6164 265.7417 0014275 282.3631 355.9502  2.13101890    18
COSMOS 2544 (759)       
1 44850C 19088A   20205.99979167 -.00000001  00000-0  00000-0 0  2055
2 44850  64.8474 145.9240 0012672 268.5043 355.0455  2.13102147    16
COSMOS 2545 (760)       
1 45358C 20018A   19320.99979167 -.00000007  00000-0  00000-0 0  3204
2 45358  65.8070  35.0079 0005134  75.6998 123.1059  2.13101688    16
